CCSDS_OEM_VERS = 2.0
COMMENT         Estimated RA ONBOARD FREQUENCY OFFSET = +2.63600133e-11
CREATION_DATE = 2015-04-18T10:04:08
ORIGINATOR    = KIAM
META_START
OBJECT_NAME   = RADIOASTRON
OBJECT_ID     = 2011-37A
CENTER_NAME   = EARTH
REF_FRAME     = EME2000
TIME_SYSTEM   = UTC
START_TIME    = 2014-04-04T11:00:00.000
STOP_TIME     = 2014-04-05T05:00:00.000
META_STOP